{
  "type": "FeatureCollection",
  "features": [
    {
      "type": "Feature",
      "properties": {
        "norad_id": 30059,
        "name": "FENGYUN 1C DEB",
        "group": "fengyun-1c-debris",
        "lat": -55.49849237793452,
        "lon": -11.894541443029052,
        "alt_km": 864.580947674146,
        "timestamp": "2025-12-04T19:33:59.877077+00:00",
        "meta_object_name": "FENGYUN 1C DEB",
        "meta_object_id": "1999-025PL",
        "meta_epoch": "2025-12-04T05:36:42.231168",
        "meta_mean_motion": 13.45486104,
        "meta_eccentricity": 0.03268997,
        "meta_inclination": 98.822,
        "meta_ra_of_asc_node": 334.5351,
        "meta_arg_of_pericenter": 324.2986,
        "meta_mean_anomaly": 45.5232,
        "meta_ephemeris_type": 0,
        "meta_classification_type": "U",
        "meta_norad_cat_id": 30059,
        "meta_element_set_no": 999,
        "meta_rev_at_epoch": 92683,
        "meta_bstar": 0.00067451935,
        "meta_mean_motion_dot": 5.13e-06,
        "meta_mean_motion_ddot": 0,
        "tle_line1": "1 30059U 99025PL  25338.23382212  .00000513  00000+0  67452-3 0  9991",
        "tle_line2": "2 30059  98.8220 334.5351 0326899 324.2986  45.5232 13.45486104926838"
      },
      "geometry": {
        "type": "Point",
        "coordinates": [
          -11.894541443029052,
          -55.49849237793452
        ]
      }
    },
    {
      "type": "Feature",
      "properties": {
        "norad_id": 30060,
        "name": "FENGYUN 1C DEB",
        "group": "fengyun-1c-debris",
        "lat": -56.58836261513125,
        "lon": 11.680369015060771,
        "alt_km": 1313.4808349543546,
        "timestamp": "2025-12-04T19:33:59.877086+00:00",
        "meta_object_name": "FENGYUN 1C DEB",
        "meta_object_id": "1999-025PM",
        "meta_epoch": "2025-12-03T21:03:34.532064",
        "meta_mean_motion": 13.4371459,
        "meta_eccentricity": 0.034385,
        "meta_inclination": 99.3149,
        "meta_ra_of_asc_node": 205.2171,
        "meta_arg_of_pericenter": 93.7395,
        "meta_mean_anomaly": 287.6041,
        "meta_ephemeris_type": 0,
        "meta_classification_type": "U",
        "meta_norad_cat_id": 30060,
        "meta_element_set_no": 999,
        "meta_rev_at_epoch": 92124,
        "meta_bstar": 0.0028989921,
        "meta_mean_motion_dot": 2.343e-05,
        "meta_mean_motion_ddot": 0,
        "tle_line1": "1 30060U 99025PM  25337.87748301  .00002343  00000+0  28990-2 0  9993",
        "tle_line2": "2 30060  99.3149 205.2171 0343850  93.7395 287.6041 13.43714590921246"
      },
      "geometry": {
        "type": "Point",
        "coordinates": [
          11.680369015060771,
          -56.58836261513125
        ]
      }
    },
    {
      "type": "Feature",
      "properties": {
        "norad_id": 30061,
        "name": "FENGYUN 1C DEB",
        "group": "fengyun-1c-debris",
        "lat": -1.144637540864248,
        "lon": -93.21466099157348,
        "alt_km": 1065.5831051405248,
        "timestamp": "2025-12-04T19:33:59.877096+00:00",
        "meta_object_name": "FENGYUN 1C DEB",
        "meta_object_id": "1999-025PN",
        "meta_epoch": "2025-12-04T06:26:00.921408",
        "meta_mean_motion": 13.46381501,
        "meta_eccentricity": 0.03723694,
        "meta_inclination": 101.8758,
        "meta_ra_of_asc_node": 86.378,
        "meta_arg_of_pericenter": 269.7139,
        "meta_mean_anomaly": 144.5243,
        "meta_ephemeris_type": 0,
        "meta_classification_type": "U",
        "meta_norad_cat_id": 30061,
        "meta_element_set_no": 999,
        "meta_rev_at_epoch": 91985,
        "meta_bstar": 0.0050865721,
        "meta_mean_motion_dot": 4.6e-05,
        "meta_mean_motion_ddot": 0,
        "tle_line1": "1 30061U 99025PN  25338.26806622  .00004600  00000+0  50866-2 0  9994",
        "tle_line2": "2 30061 101.8758  86.3780 0372369 269.7139 144.5243 13.46381501919858"
      },
      "geometry": {
        "type": "Point",
        "coordinates": [
          -93.21466099157348,
          -1.144637540864248
        ]
      }
    },
    {
      "type": "Feature",
      "properties": {
        "norad_id": 30062,
        "name": "FENGYUN 1C DEB",
        "group": "fengyun-1c-debris",
        "lat": -24.04431838916797,
        "lon": 164.27633773538872,
        "alt_km": 899.7249156203188,
        "timestamp": "2025-12-04T19:33:59.877105+00:00",
        "meta_object_name": "FENGYUN 1C DEB",
        "meta_object_id": "1999-025PP",
        "meta_epoch": "2025-12-04T06:57:59.274432",
        "meta_mean_motion": 14.07094702,
        "meta_eccentricity": 0.00497226,
        "meta_inclination": 98.7809,
        "meta_ra_of_asc_node": 347.7207,
        "meta_arg_of_pericenter": 71.6845,
        "meta_mean_anomaly": 354.1743,
        "meta_ephemeris_type": 0,
        "meta_classification_type": "U",
        "meta_norad_cat_id": 30062,
        "meta_element_set_no": 999,
        "meta_rev_at_epoch": 96789,
        "meta_bstar": 0.00058187768,
        "meta_mean_motion_dot": 9.42e-06,
        "meta_mean_motion_ddot": 0,
        "tle_line1": "1 30062U 99025PP  25338.29026938  .00000942  00000+0  58188-3 0  9993",
        "tle_line2": "2 30062  98.7809 347.7207 0049722  71.6845 354.1743 14.07094702967899"
      },
      "geometry": {
        "type": "Point",
        "coordinates": [
          164.27633773538872,
          -24.04431838916797
        ]
      }
    },
    {
      "type": "Feature",
      "properties": {
        "norad_id": 30063,
        "name": "FENGYUN 1C DEB",
        "group": "fengyun-1c-debris",
        "lat": -25.607317339777527,
        "lon": -37.90144206773658,
        "alt_km": 869.3379625443413,
        "timestamp": "2025-12-04T19:33:59.877114+00:00",
        "meta_object_name": "FENGYUN 1C DEB",
        "meta_object_id": "1999-025PQ",
        "meta_epoch": "2025-12-04T04:29:45.974688",
        "meta_mean_motion": 14.15607489,
        "meta_eccentricity": 0.00325968,
        "meta_inclination": 98.5205,
        "meta_ra_of_asc_node": 317.3781,
        "meta_arg_of_pericenter": 158.3853,
        "meta_mean_anomaly": 217.507,
        "meta_ephemeris_type": 0,
        "meta_classification_type": "U",
        "meta_norad_cat_id": 30063,
        "meta_element_set_no": 999,
        "meta_rev_at_epoch": 97544,
        "meta_bstar": 0.00014195944,
        "meta_mean_motion_dot": 2.38e-06,
        "meta_mean_motion_ddot": 0,
        "tle_line1": "1 30063U 99025PQ  25338.18733767  .00000238  00000+0  14196-3 0  9996",
        "tle_line2": "2 30063  98.5205 317.3781 0032596 158.3853 217.5070 14.15607489975447"
      },
      "geometry": {
        "type": "Point",
        "coordinates": [
          -37.90144206773658,
          -25.607317339777527
        ]
      }
    },
    {
      "type": "Feature",
      "properties": {
        "norad_id": 30064,
        "name": "FENGYUN 1C DEB",
        "group": "fengyun-1c-debris",
        "lat": 41.926112602226624,
        "lon": 177.97654156270838,
        "alt_km": 793.5211469346395,
        "timestamp": "2025-12-04T19:33:59.877123+00:00",
        "meta_object_name": "FENGYUN 1C DEB",
        "meta_object_id": "1999-025PR",
        "meta_epoch": "2025-12-03T19:59:25.209024",
        "meta_mean_motion": 14.1426059,
        "meta_eccentricity": 0.00663766,
        "meta_inclination": 98.662,
        "meta_ra_of_asc_node": 349.1555,
        "meta_arg_of_pericenter": 136.5156,
        "meta_mean_anomaly": 42.1826,
        "meta_ephemeris_type": 0,
        "meta_classification_type": "U",
        "meta_norad_cat_id": 30064,
        "meta_element_set_no": 999,
        "meta_rev_at_epoch": 97379,
        "meta_bstar": 0.00029188588,
        "meta_mean_motion_dot": 5.27e-06,
        "meta_mean_motion_ddot": 0,
        "tle_line1": "1 30064U 99025PR  25337.83293066  .00000527  00000+0  29189-3 0  9990",
        "tle_line2": "2 30064  98.6620 349.1555 0066376 136.5156  42.1826 14.14260590973793"
      },
      "geometry": {
        "type": "Point",
        "coordinates": [
          177.97654156270838,
          41.926112602226624
        ]
      }
    },
    {
      "type": "Feature",
      "properties": {
        "norad_id": 30065,
        "name": "FENGYUN 1C DEB",
        "group": "fengyun-1c-debris",
        "lat": 25.493353998827608,
        "lon": 136.3856695269766,
        "alt_km": 955.7293432435454,
        "timestamp": "2025-12-04T19:33:59.877132+00:00",
        "meta_object_name": "FENGYUN 1C DEB",
        "meta_object_id": "1999-025PS",
        "meta_epoch": "2025-12-03T22:03:44.156448",
        "meta_mean_motion": 13.86909869,
        "meta_eccentricity": 0.0131931,
        "meta_inclination": 98.6831,
        "meta_ra_of_asc_node": 311.3747,
        "meta_arg_of_pericenter": 55.5559,
        "meta_mean_anomaly": 305.7985,
        "meta_ephemeris_type": 0,
        "meta_classification_type": "U",
        "meta_norad_cat_id": 30065,
        "meta_element_set_no": 999,
        "meta_rev_at_epoch": 95549,
        "meta_bstar": 0.00026930761,
        "meta_mean_motion_dot": 2.98e-06,
        "meta_mean_motion_ddot": 0,
        "tle_line1": "1 30065U 99025PS  25337.91926107  .00000298  00000+0  26931-3 0  9996",
        "tle_line2": "2 30065  98.6831 311.3747 0131931  55.5559 305.7985 13.86909869955497"
      },
      "geometry": {
        "type": "Point",
        "coordinates": [
          136.3856695269766,
          25.493353998827608
        ]
      }
    }
  ]
}